[{"OBJECT_NAME":"SL-14 R/B","OBJECT_ID":"1986-006B","EPOCH":"2026-04-23T13:01:50.284704","MEAN_MOTION":14.86887588,"ECCENTRICITY":0.00777645,"INCLINATION":82.5293,"RA_OF_ASC_NODE":217.5246,"ARG_OF_PERICENTER":123.4566,"MEAN_ANOMALY":237.4117,"EPHEMERIS_TYPE":0,"CLASSIFICATION_TYPE":"U","NORAD_CAT_ID":16496,"ELEMENT_SET_NO":999,"REV_AT_EPOCH":15587,"BSTAR":5.4225693e-5,"MEAN_MOTION_DOT":5.4e-6,"MEAN_MOTION_DDOT":0},{"OBJECT_NAME":"COSMOS 1743","OBJECT_ID":"1986-034A","EPOCH":"2026-04-23T03:28:06.546144","MEAN_MOTION":15.62390736,"ECCENTRICITY":0.00075258,"INCLINATION":82.5324,"RA_OF_ASC_NODE":27.0396,"ARG_OF_PERICENTER":109.4121,"MEAN_ANOMALY":250.7951,"EPHEMERIS_TYPE":0,"CLASSIFICATION_TYPE":"U","NORAD_CAT_ID":16719,"ELEMENT_SET_NO":999,"REV_AT_EPOCH":18718,"BSTAR":0.00039945041,"MEAN_MOTION_DOT":0.00035526,"MEAN_MOTION_DDOT":0},{"OBJECT_NAME":"SL-14 R/B","OBJECT_ID":"1986-046B","EPOCH":"2026-04-23T06:15:50.007744","MEAN_MOTION":14.85631814,"ECCENTRICITY":0.0024681,"INCLINATION":82.4842,"RA_OF_ASC_NODE":38.0674,"ARG_OF_PERICENTER":81.2502,"MEAN_ANOMALY":279.1508,"EPHEMERIS_TYPE":0,"CLASSIFICATION_TYPE":"U","NORAD_CAT_ID":16792,"ELEMENT_SET_NO":999,"REV_AT_EPOCH":13302,"BSTAR":3.744743e-5,"MEAN_MOTION_DOT":3.51e-6,"MEAN_MOTION_DDOT":0},{"OBJECT_NAME":"SL-14 R/B","OBJECT_ID":"1986-055B","EPOCH":"2026-04-23T08:12:08.006112","MEAN_MOTION":14.85680299,"ECCENTRICITY":0.00188134,"INCLINATION":82.5183,"RA_OF_ASC_NODE":84.6889,"ARG_OF_PERICENTER":179.606,"MEAN_ANOMALY":345.4206,"EPHEMERIS_TYPE":0,"CLASSIFICATION_TYPE":"U","NORAD_CAT_ID":16882,"ELEMENT_SET_NO":999,"REV_AT_EPOCH":12599,"BSTAR":3.5538333e-5,"MEAN_MOTION_DOT":3.33e-6,"MEAN_MOTION_DDOT":0},{"OBJECT_NAME":"AJISAI (EGS)","OBJECT_ID":"1986-061A","EPOCH":"2026-04-23T12:28:18.102144","MEAN_MOTION":12.44515935,"ECCENTRICITY":0.00114195,"INCLINATION":50.0102,"RA_OF_ASC_NODE":315.4986,"ARG_OF_PERICENTER":42.0212,"MEAN_ANOMALY":355.4396,"EPHEMERIS_TYPE":0,"CLASSIFICATION_TYPE":"U","NORAD_CAT_ID":16908,"ELEMENT_SET_NO":999,"REV_AT_EPOCH":47358,"BSTAR":0.00013080942,"MEAN_MOTION_DOT":-7.9e-7,"MEAN_MOTION_DDOT":0},{"OBJECT_NAME":"SL-14 R/B","OBJECT_ID":"1987-024B","EPOCH":"2026-04-23T13:08:24.814752","MEAN_MOTION":14.86172937,"ECCENTRICITY":0.00197426,"INCLINATION":82.5295,"RA_OF_ASC_NODE":50.5975,"ARG_OF_PERICENTER":110.3802,"MEAN_ANOMALY":249.9538,"EPHEMERIS_TYPE":0,"CLASSIFICATION_TYPE":"U","NORAD_CAT_ID":17567,"ELEMENT_SET_NO":999,"REV_AT_EPOCH":9479,"BSTAR":3.5445758e-5,"MEAN_MOTION_DOT":3.37e-6,"MEAN_MOTION_DDOT":0},{"OBJECT_NAME":"COSMOS 1833","OBJECT_ID":"1987-027A","EPOCH":"2026-04-23T14:23:27.829824","MEAN_MOTION":14.13034628,"ECCENTRICITY":0.00224295,"INCLINATION":70.9164,"RA_OF_ASC_NODE":231.616,"ARG_OF_PERICENTER":145.1564,"MEAN_ANOMALY":215.1031,"EPHEMERIS_TYPE":0,"CLASSIFICATION_TYPE":"U","NORAD_CAT_ID":17589,"ELEMENT_SET_NO":999,"REV_AT_EPOCH":1666,"BSTAR":-9.5775449e-5,"MEAN_MOTION_DOT":-2.27e-6,"MEAN_MOTION_DDOT":0},{"OBJECT_NAME":"SL-16 R/B","OBJECT_ID":"1987-027B","EPOCH":"2026-04-23T05:32:40.992864","MEAN_MOTION":14.17169758,"ECCENTRICITY":0.00034988,"INCLINATION":71.0029,"RA_OF_ASC_NODE":182.635,"ARG_OF_PERICENTER":31.9871,"MEAN_ANOMALY":328.1465,"EPHEMERIS_TYPE":0,"CLASSIFICATION_TYPE":"U","NORAD_CAT_ID":17590,"ELEMENT_SET_NO":999,"REV_AT_EPOCH":2165,"BSTAR":0.00012909921,"MEAN_MOTION_DOT":2.12e-6,"MEAN_MOTION_DDOT":0},{"OBJECT_NAME":"SL-14 R/B","OBJECT_ID":"1987-038B","EPOCH":"2026-04-23T11:57:13.988448","MEAN_MOTION":14.85408031,"ECCENTRICITY":0.00196885,"INCLINATION":82.5001,"RA_OF_ASC_NODE":254.5827,"ARG_OF_PERICENTER":20.902,"MEAN_ANOMALY":339.2996,"EPHEMERIS_TYPE":0,"CLASSIFICATION_TYPE":"U","NORAD_CAT_ID":17912,"ELEMENT_SET_NO":999,"REV_AT_EPOCH":8588,"BSTAR":3.2560718e-5,"MEAN_MOTION_DOT":3.06e-6,"MEAN_MOTION_DDOT":0},{"OBJECT_NAME":"COSMOS 1844","OBJECT_ID":"1987-041A","EPOCH":"2026-04-22T22:48:17.216064","MEAN_MOTION":14.14561954,"ECCENTRICITY":0.0032745,"INCLINATION":70.8984,"RA_OF_ASC_NODE":300.8198,"ARG_OF_PERICENTER":312.9793,"MEAN_ANOMALY":46.8584,"EPHEMERIS_TYPE":0,"CLASSIFICATION_TYPE":"U","NORAD_CAT_ID":17973,"ELEMENT_SET_NO":999,"REV_AT_EPOCH":984,"BSTAR":-0.00013059,"MEAN_MOTION_DOT":-3.01e-6,"MEAN_MOTION_DDOT":0},{"OBJECT_NAME":"SL-14 R/B","OBJECT_ID":"1987-055B","EPOCH":"2026-04-22T23:53:43.549152","MEAN_MOTION":14.85666671,"ECCENTRICITY":0.00195411,"INCLINATION":82.4969,"RA_OF_ASC_NODE":307.2681,"ARG_OF_PERICENTER":224.1322,"MEAN_ANOMALY":135.8336,"EPHEMERIS_TYPE":0,"CLASSIFICATION_TYPE":"U","NORAD_CAT_ID":18153,"ELEMENT_SET_NO":999,"REV_AT_EPOCH":7651,"BSTAR":3.0328224e-5,"MEAN_MOTION_DOT":2.88e-6,"MEAN_MOTION_DDOT":0},{"OBJECT_NAME":"COSMOS 1867","OBJECT_ID":"1987-060A","EPOCH":"2026-04-23T10:22:04.761984","MEAN_MOTION":14.3150947,"ECCENTRICITY":0.00153615,"INCLINATION":65.0104,"RA_OF_ASC_NODE":181.4028,"ARG_OF_PERICENTER":280.8903,"MEAN_ANOMALY":79.0453,"EPHEMERIS_TYPE":0,"CLASSIFICATION_TYPE":"U","NORAD_CAT_ID":18187,"ELEMENT_SET_NO":999,"REV_AT_EPOCH":2634,"BSTAR":1.1842138e-5,"MEAN_MOTION_DOT":-6.9e-7,"MEAN_MOTION_DDOT":0},{"OBJECT_NAME":"SL-14 R/B","OBJECT_ID":"1988-001B","EPOCH":"2026-04-23T11:10:21.625248","MEAN_MOTION":14.85568733,"ECCENTRICITY":0.00196565,"INCLINATION":82.5128,"RA_OF_ASC_NODE":153.2565,"ARG_OF_PERICENTER":90.5698,"MEAN_ANOMALY":269.7771,"EPHEMERIS_TYPE":0,"CLASSIFICATION_TYPE":"U","NORAD_CAT_ID":18749,"ELEMENT_SET_NO":999,"REV_AT_EPOCH":4867,"BSTAR":2.7020039e-5,"MEAN_MOTION_DOT":2.59e-6,"MEAN_MOTION_DDOT":0},{"OBJECT_NAME":"COSMOS 1933","OBJECT_ID":"1988-020A","EPOCH":"2026-04-23T13:01:27.774048","MEAN_MOTION":15.18373095,"ECCENTRICITY":0.0005111,"INCLINATION":82.5151,"RA_OF_ASC_NODE":206.5277,"ARG_OF_PERICENTER":59.1647,"MEAN_ANOMALY":301.0089,"EPHEMERIS_TYPE":0,"CLASSIFICATION_TYPE":"U","NORAD_CAT_ID":18958,"ELEMENT_SET_NO":999,"REV_AT_EPOCH":5703,"BSTAR":0.00014428918,"MEAN_MOTION_DOT":2.996e-5,"MEAN_MOTION_DDOT":0},{"OBJECT_NAME":"SL-3 R/B","OBJECT_ID":"1988-032B","EPOCH":"2026-04-23T11:50:30.526368","MEAN_MOTION":15.20363962,"ECCENTRICITY":0.00276339,"INCLINATION":97.524,"RA_OF_ASC_NODE":96.6194,"ARG_OF_PERICENTER":78.7524,"MEAN_ANOMALY":281.6815,"EPHEMERIS_TYPE":0,"CLASSIFICATION_TYPE":"U","NORAD_CAT_ID":19046,"ELEMENT_SET_NO":999,"REV_AT_EPOCH":5891,"BSTAR":0.00017952749,"MEAN_MOTION_DOT":3.875e-5,"MEAN_MOTION_DDOT":0},{"OBJECT_NAME":"SL-16 R/B","OBJECT_ID":"1988-039B","EPOCH":"2026-04-23T00:27:53.556768","MEAN_MOTION":14.19622798,"ECCENTRICITY":0.00240889,"INCLINATION":71.0154,"RA_OF_ASC_NODE":334.8146,"ARG_OF_PERICENTER":271.6866,"MEAN_ANOMALY":88.15,"EPHEMERIS_TYPE":0,"CLASSIFICATION_TYPE":"U","NORAD_CAT_ID":19120,"ELEMENT_SET_NO":999,"REV_AT_EPOCH":96467,"BSTAR":5.1067463e-5,"MEAN_MOTION_DOT":6.0e-7,"MEAN_MOTION_DDOT":0},{"OBJECT_NAME":"COSMOS 1953","OBJECT_ID":"1988-050A","EPOCH":"2026-04-23T07:51:56.117376","MEAN_MOTION":15.29178237,"ECCENTRICITY":0.00097171,"INCLINATION":82.5052,"RA_OF_ASC_NODE":113.3183,"ARG_OF_PERICENTER":336.3951,"MEAN_ANOMALY":23.6841,"EPHEMERIS_TYPE":0,"CLASSIFICATION_TYPE":"U","NORAD_CAT_ID":19210,"ELEMENT_SET_NO":999,"REV_AT_EPOCH":4460,"BSTAR":0.00021145896,"MEAN_MOTION_DOT":6.026e-5,"MEAN_MOTION_DDOT":0}]
