SL-14 R/B               
1 16496U 86006B   26113.54294311  .00000540  00000+0  54226-4 0  9999
2 16496  82.5293 217.5246 0077764 123.4566 237.4117 14.86887588155876
COSMOS 1743             
1 16719U 86034A   26113.14452021  .00035526  00000+0  39945-3 0  9990
2 16719  82.5324  27.0396 0007525 109.4121 250.7951 15.62390736187180
SL-14 R/B               
1 16792U 86046B   26113.26099546  .00000351  00000+0  37447-4 0  9990
2 16792  82.4842  38.0674 0024681  81.2502 279.1508 14.85631814133024
SL-14 R/B               
1 16882U 86055B   26113.34175933  .00000333  00000+0  35538-4 0  9993
2 16882  82.5183  84.6889 0018813 179.6060 345.4206 14.85680299125999
AJISAI (EGS)            
1 16908U 86061A   26113.51965396 -.00000079  00000+0  13081-3 0  9994
2 16908  50.0102 315.4986 0011419  42.0212 355.4396 12.44515935473588
SL-14 R/B               
1 17567U 87024B   26113.54750943  .00000337  00000+0  35446-4 0  9995
2 17567  82.5295  50.5975 0019742 110.3802 249.9538 14.86172937 94795
COSMOS 1833             
1 17589U 87027A   26113.59962766 -.00000227  00000+0 -95775-4 0  9996
2 17589  70.9164 231.6160 0022429 145.1564 215.1031 14.13034628 16667
SL-16 R/B               
1 17590U 87027B   26113.23103001  .00000212  00000+0  12910-3 0  9999
2 17590  71.0029 182.6350 0003498  31.9871 328.1465 14.17169758 21653
SL-14 R/B               
1 17912U 87038B   26113.49807857  .00000306  00000+0  32561-4 0  9996
2 17912  82.5001 254.5827 0019688  20.9020 339.2996 14.85408031 85880
COSMOS 1844             
1 17973U 87041A   26112.95019926 -.00000301  00000+0 -13059-3 0  9996
2 17973  70.8984 300.8198 0032745 312.9793  46.8584 14.14561954  9845
SL-14 R/B               
1 18153U 87055B   26112.99564293  .00000288  00000+0  30328-4 0  9999
2 18153  82.4969 307.2681 0019541 224.1322 135.8336 14.85666671 76519
COSMOS 1867             
1 18187U 87060A   26113.43199956 -.00000069  00000+0  11842-4 0  9990
2 18187  65.0104 181.4028 0015361 280.8903  79.0453 14.31509470 26340
SL-14 R/B               
1 18749U 88001B   26113.46552807  .00000259  00000+0  27020-4 0  9996
2 18749  82.5128 153.2565 0019656  90.5698 269.7771 14.85568733 48672
COSMOS 1933             
1 18958U 88020A   26113.54268257  .00002996  00000+0  14429-3 0  9999
2 18958  82.5151 206.5277 0005111  59.1647 301.0089 15.18373095 57032
SL-3 R/B                
1 19046U 88032B   26113.49340887  .00003875  00000+0  17953-3 0  9997
2 19046  97.5240  96.6194 0027633  78.7524 281.6815 15.20363962 58919
SL-16 R/B               
1 19120U 88039B   26113.01936987  .00000060  00000+0  51067-4 0  9995
2 19120  71.0154 334.8146 0024088 271.6866  88.1500 14.19622798964673
COSMOS 1953             
1 19210U 88050A   26113.32773284  .00006026  00000+0  21146-3 0  9993
2 19210  82.5052 113.3183 0009717 336.3951  23.6841 15.29178237 44604
